ONEWEB-0403             
1 50483U 21132Q   25012.67990507  .00000019  00000+0  14422-4 0  9998
2 50483  87.9084  79.0051 0001893  98.5768 261.5578 13.18688031154276
ONEWEB-0404             
1 50484U 21132R   25012.52972602  .00000046  00000+0  94989-4 0  9995
2 50484  87.8914 124.8388 0001903  93.6802 266.4544 13.11418034147453
ONEWEB-0405             
1 50485U 21132S   25012.54395986 -.00000201  00000+0 -54259-3 0  9992
2 50485  87.9087  79.0223 0001455  97.9938 262.1360 13.18687363153371
ONEWEB-0406             
1 50486U 21132T   25012.45702288 -.00000004  00000+0 -42848-4 0  9993
2 50486  87.9089  79.0558 0002461  95.1943 264.9470 13.18688293152991
ONEWEB-0407             
1 50487U 21132U   25012.67832747  .00000061  00000+0  12148-3 0  9992
2 50487  87.9083  79.0037 0001673  97.8706 262.2616 13.18688007154255
ONEWEB-0409             
1 50488U 21132V   25012.37545514  .00000182  00000+0  47777-3 0  9993
2 50488  87.8906 124.8475 0001936 102.6102 257.5243 13.11415986147321
ONEWEB-0412             
1 50489U 21132W   25012.66723970  .00002884  00000+0  72780-2 0  9992
2 50489  87.9085  79.0153 0001727 119.7965 240.3339 13.18708994154335
ONEWEB-0413             
1 50490U 21132X   25012.44437293  .00000109  00000+0  24351-3 0  9990
2 50490  87.9091  79.0722 0001452 104.3622 255.7671 13.18687690152966
